[{"number": "2186", "streetName": "Amsterdam ave", "unit": "", "coords": [-73.9368561, 40.8402543], "city": "New York", "state": "NY", "zip": "10032"}, {"number": "455", "streetName": "N  end ave", "unit": "", "coords": [-74.0144068, 40.7174579], "city": "New York", "state": "NY", "zip": "10282"}, {"number": "212", "streetName": "W  57 st", "unit": "", "coords": [-73.9807818, 40.7656095], "city": "New York", "state": "NY", "zip": "10106"}, {"number": "45", "streetName": "W  89 st", "unit": "", "coords": [-73.9693908, 40.7879662], "city": "New York", "state": "NY", "zip": "10024"}, {"number": "258", "streetName": "3 ave", "unit": "", "coords": [-73.984327, 40.7375222], "city": "New York", "state": "NY", "zip": "10003"}, {"number": "150", "streetName": "Nassau st", "unit": "", "coords": [-74.0059664, 40.7115073], "city": "New York", "state": "NY", "zip": "10038"}, {"number": "760", "streetName": "Riverside dr", "unit": "", "coords": [-73.9493111, 40.8321927], "city": "New York", "state": "NY", "zip": "10031"}, {"number": "3", "streetName": "E  53 st", "unit": "", "coords": [-73.9752393, 40.760276], "city": "New York", "state": "NY", "zip": "10022"}, {"number": "325", "streetName": "E  118 st", "unit": "", "coords": [-73.935713, 40.7979659], "city": "New York", "state": "NY", "zip": "10035"}, {"number": "501", "streetName": "E  75 st", "unit": "", "coords": [-73.951819, 40.7686991], "city": "New York", "state": "NY", "zip": "10021"}, {"number": "96", "streetName": "Front st", "unit": "", "coords": [-74.0074682, 40.7045364], "city": "New York", "state": "NY", "zip": "10005"}, {"number": "23", "streetName": "W  55 st", "unit": "", "coords": [-73.9760666, 40.7622624], "city": "New York", "state": "NY", "zip": "10019"}, {"number": "313", "streetName": "E  56 st", "unit": "", "coords": [-73.9649693, 40.7584012], "city": "New York", "state": "NY", "zip": "10022"}, {"number": "888", "streetName": "7 ave", "unit": "", "coords": [-73.9806083, 40.7651265], "city": "New York", "state": "NY", "zip": "10106"}, {"number": "77", "streetName": "Vermilyea ave", "unit": "", "coords": [-73.9230063, 40.8655119], "city": "New York", "state": "NY", "zip": "10034"}, {"number": "171", "streetName": "E  111 st", "unit": "", "coords": [-73.9430879, 40.7951932], "city": "New York", "state": "NY", "zip": "10029"}, {"number": "49", "streetName": "Duane st", "unit": "", "coords": [-74.0039247, 40.7147249], "city": "New York", "state": "NY", "zip": "10278"}, {"number": "345", "streetName": "Park ave", "unit": "", "coords": [-73.972851, 40.7581203], "city": "New York", "state": "NY", "zip": "10154"}, {"number": "350", "streetName": "5 ave", "unit": "A", "coords": [-73.9850034, 40.7481614], "city": "New York", "state": "NY", "zip": "10118"}, {"number": "70", "streetName": "Pine st", "unit": "", "coords": [-74.0078084, 40.7063242], "city": "New York", "state": "NY", "zip": "10270"}, {"number": "630", "streetName": "5 ave", "unit": "", "coords": [-73.9772858, 40.7589888], "city": "New York", "state": "NY", "zip": "10111"}, {"number": "1346", "streetName": "Amsterdam ave", "unit": "", "coords": [-73.9561208, 40.8138867], "city": "New York", "state": "NY", "zip": "10027"}, {"number": "100", "streetName": "Centre st", "unit": "", "coords": [-74.0011684, 40.7160714], "city": "New York", "state": "NY", "zip": "10013"}, {"number": "65", "streetName": "Broadway", "unit": "", "coords": [-74.0123457, 40.7071798], "city": "New York", "state": "NY", "zip": "10006"}, {"number": "2", "streetName": "Penn plz", "unit": "", "coords": [-73.9919516, 40.7499311], "city": "New York", "state": "NY", "zip": "10121"}, {"number": "639", "streetName": "W  46 st", "unit": "", "coords": [-73.9981257, 40.7641872], "city": "New York", "state": "NY", "zip": "10036"}, {"number": "220", "streetName": "W  11 st", "unit": "", "coords": [-74.0022482, 40.7362742], "city": "New York", "state": "NY", "zip": "10014"}, {"number": "90", "streetName": "Bradhurst ave", "unit": "", "coords": [-73.9420107, 40.8242328], "city": "New York", "state": "NY", "zip": "10039"}, {"number": "123", "streetName": "E  41 st", "unit": "", "coords": [-73.976779, 40.7509892], "city": "New York", "state": "NY", "zip": "10168"}, {"number": "240", "streetName": "W  54 st", "unit": "", "coords": [-73.983151, 40.7642147], "city": "New York", "state": "NY", "zip": "10019"}, {"number": "1", "streetName": "Carlisle st", "unit": "", "coords": [-74.0133879, 40.7088371], "city": "New York", "state": "NY", "zip": "10006"}, {"number": "418", "streetName": "W  154 st", "unit": "", "coords": [-73.9425007, 40.8303641], "city": "New York", "state": "NY", "zip": "10032"}, {"number": "314", "streetName": "W  36 st", "unit": "", "coords": [-73.9933421, 40.7537118], "city": "New York", "state": "NY", "zip": "10018"}, {"number": "740", "streetName": "W  end ave", "unit": "", "coords": [-73.972867, 40.7954169], "city": "New York", "state": "NY", "zip": "10025"}, {"number": "55", "streetName": "E  52 st", "unit": "", "coords": [-73.9736544, 40.7587876], "city": "New York", "state": "NY", "zip": "10055"}, {"number": "325", "streetName": "S  end ave", "unit": "", "coords": [-74.0163336, 40.7106791], "city": "New York", "state": "NY", "zip": "10280"}, {"number": "250", "streetName": "W  57 st", "unit": "", "coords": [-73.982222, 40.7662706], "city": "New York", "state": "NY", "zip": "10107"}, {"number": "100", "streetName": "W  55 st", "unit": "", "coords": [-73.9788743, 40.7631583], "city": "New York", "state": "NY", "zip": "10105"}, {"number": "40", "streetName": "W  51 st", "unit": "", "coords": [-73.9786972, 40.759873], "city": "New York", "state": "NY", "zip": "10020"}, {"number": "112", "streetName": "W  76 st", "unit": "", "coords": [-73.9776233, 40.7801779], "city": "New York", "state": "NY", "zip": "10023"}, {"number": "245", "streetName": "W  26 st", "unit": "", "coords": [-73.996156, 40.7469032], "city": "New York", "state": "NY", "zip": "10001"}, {"number": "610", "streetName": "Madison ave", "unit": "", "coords": [-73.9719451, 40.7631708], "city": "New York", "state": "NY", "zip": "10153"}, {"number": "301", "streetName": "W  146 st", "unit": "", "coords": [-73.9416778, 40.8237144], "city": "New York", "state": "NY", "zip": "10039"}, {"number": "324", "streetName": "E  4 st", "unit": "", "coords": [-73.9792933, 40.7218055], "city": "New York", "state": "NY", "zip": "10009"}, {"number": "41", "streetName": "E  25 st", "unit": "", "coords": [-73.9866206, 40.742095], "city": "New York", "state": "NY", "zip": "10010"}, {"number": "2", "streetName": "Penn plz", "unit": "", "coords": [-73.9919516, 40.7499311], "city": "New York", "state": "NY", "zip": "10121"}, {"number": "246", "streetName": "10 ave", "unit": "", "coords": [-74.0033525, 40.7485061], "city": "New York", "state": "NY", "zip": "10001"}, {"number": "43", "streetName": "Dey st", "unit": "", "coords": [-74.0120155, 40.7113734], "city": "New York", "state": "NY", "zip": "10048"}, {"number": "63", "streetName": "W  49 st", "unit": "", "coords": [-73.9802936, 40.759158], "city": "New York", "state": "NY", "zip": "10020"}, {"number": "337", "streetName": "E  41 st", "unit": "", "coords": [-73.9712207, 40.7486727], "city": "New York", "state": "NY", "zip": "10017"}, {"number": "19", "streetName": "New st", "unit": "", "coords": [-74.0116984, 40.7069936], "city": "New York", "state": "NY", "zip": "10005"}, {"number": "131", "streetName": "W  35 st", "unit": "", "coords": [-73.9887003, 40.7511617], "city": "New York", "state": "NY", "zip": "10018"}, {"number": "320", "streetName": "E  46 st", "unit": "", "coords": [-73.9694412, 40.7518397], "city": "New York", "state": "NY", "zip": "10017"}, {"number": "201", "streetName": "W  131 st", "unit": "1/2", "coords": [-73.9460268, 40.8130682], "city": "New York", "state": "NY", "zip": "10027"}, {"number": "2", "streetName": "Park pl", "unit": "", "coords": [-74.0079778, 40.7125041], "city": "New York", "state": "NY", "zip": "10279"}, {"number": "18", "streetName": "2 ave", "unit": "", "coords": [-73.9907271, 40.7240931], "city": "New York", "state": "NY", "zip": "10003"}, {"number": "450", "streetName": "N  end ave", "unit": "", "coords": [-74.0140936, 40.7170625], "city": "New York", "state": "NY", "zip": "10282"}, {"number": "52", "streetName": "E  53 st", "unit": "", "coords": [-73.9736853, 40.7594012], "city": "New York", "state": "NY", "zip": "10055"}, {"number": "75", "streetName": "Maiden ln", "unit": "", "coords": [-74.0076664, 40.7076862], "city": "New York", "state": "NY", "zip": "10038"}, {"number": "30", "streetName": "Rockefeller plz", "unit": "", "coords": [-73.9788129, 40.7588272], "city": "New York", "state": "NY", "zip": "10020"}, {"number": "1", "streetName": "Mc ginty cir", "unit": "", "coords": [-73.9195702, 40.7924399], "city": "New York", "state": "NY", "zip": "10035"}, {"number": "660", "streetName": "5 ave", "unit": "C", "coords": [-73.9761566, 40.760284], "city": "New York", "state": "NY", "zip": "10103"}, {"number": "56", "streetName": "W  50 st", "unit": "", "coords": [-73.979735, 40.7594798], "city": "New York", "state": "NY", "zip": "10020"}, {"number": "10", "streetName": "E  59 st", "unit": "", "coords": [-73.972095, 40.763765], "city": "New York", "state": "NY", "zip": "10153"}, {"number": "625", "streetName": "W  56 st", "unit": "", "coords": [-73.9938412, 40.7704668], "city": "New York", "state": "NY", "zip": "10019"}, {"number": "432", "streetName": "W  203 st", "unit": "", "coords": [-73.9200306, 40.8615065], "city": "New York", "state": "NY", "zip": "10034"}, {"number": "700", "streetName": "3 ave", "unit": "", "coords": [-73.9737641, 40.7520175], "city": "New York", "state": "NY", "zip": "10017"}, {"number": "521", "streetName": "E  85 st", "unit": "B", "coords": [-73.9465077, 40.7748825], "city": "New York", "state": "NY", "zip": "10028"}, {"number": "339", "streetName": "S  end ave", "unit": "", "coords": [-74.0162439, 40.7109152], "city": "New York", "state": "NY", "zip": "10280"}, {"number": "40", "streetName": "Mott st", "unit": "", "coords": [-73.9987193, 40.7150836], "city": "New York", "state": "NY", "zip": "10013"}, {"number": "100", "streetName": "W  55 st", "unit": "", "coords": [-73.9788743, 40.7631583], "city": "New York", "state": "NY", "zip": "10105"}, {"number": "302", "streetName": "W  47 st", "unit": "", "coords": [-73.987995, 40.7605178], "city": "New York", "state": "NY", "zip": "10036"}, {"number": "250", "streetName": "W  57 st", "unit": "", "coords": [-73.982222, 40.7662706], "city": "New York", "state": "NY", "zip": "10107"}, {"number": "217", "streetName": "Broadway", "unit": "", "coords": [-74.0086124, 40.7116418], "city": "New York", "state": "NY", "zip": "10007"}, {"number": "100", "streetName": "W  55 st", "unit": "", "coords": [-73.9788743, 40.7631583], "city": "New York", "state": "NY", "zip": "10105"}, {"number": "11", "streetName": "E  129 st", "unit": "1/2", "coords": [-73.9395367, 40.8087214], "city": "New York", "state": "NY", "zip": "10035"}, {"number": "371", "streetName": "7 ave", "unit": "", "coords": [-73.9919696, 40.7488386], "city": "New York", "state": "NY", "zip": "10001"}, {"number": "350", "streetName": "5 ave", "unit": "B", "coords": [-73.9860288, 40.7488744], "city": "New York", "state": "NY", "zip": "10118"}, {"number": "52", "streetName": "E  53 st", "unit": "", "coords": [-73.9736853, 40.7594012], "city": "New York", "state": "NY", "zip": "10055"}, {"number": "500", "streetName": "W  188 st", "unit": "", "coords": [-73.9279804, 40.8524974], "city": "New York", "state": "NY", "zip": "10040"}, {"number": "500", "streetName": "W  140 st", "unit": "", "coords": [-73.9504365, 40.8221794], "city": "New York", "state": "NY", "zip": "10031"}, {"number": "205", "streetName": "E  92 st", "unit": "", "coords": [-73.950459, 40.782425], "city": "New York", "state": "NY", "zip": "10128"}, {"number": "49", "streetName": "Duane st", "unit": "", "coords": [-74.0039247, 40.7147249], "city": "New York", "state": "NY", "zip": "10278"}, {"number": "24", "streetName": "Warren st", "unit": "", "coords": [-74.0079102, 40.7142627], "city": "New York", "state": "NY", "zip": "10007"}, {"number": "100", "streetName": "Wall st", "unit": "", "coords": [-74.0070864, 40.7051987], "city": "New York", "state": "NY", "zip": "10005"}, {"number": "124", "streetName": "Delancey st", "unit": "", "coords": [-73.9876898, 40.7186304], "city": "New York", "state": "NY", "zip": "10002"}, {"number": "3", "streetName": "E  115 st", "unit": "", "coords": [-73.9463747, 40.7998531], "city": "New York", "state": "NY", "zip": "10029"}, {"number": "1", "streetName": "World financial center", "unit": "", "coords": [-74.0153555, 40.7112133], "city": "New York", "state": "NY", "zip": "10281"}]
